{
  "norad_id": 68316,
  "name": "STARLINK-37154",
  "history": [
    {
      "epoch": "2026-03-28T20:00:01.999872",
      "apogee_km": 263.1604103856753,
      "perigee_km": 261.76854031644234,
      "latitude_deg": -62.04572611443177,
      "longitude_deg": 11.602222080109641,
      "semi_major_axis_km": 6640.601475351059,
      "eccentricity": 0.0001048,
      "inclination_deg": 97.278,
      "raan_deg": 210.9743,
      "arg_perigee_deg": 74.8273,
      "mean_anomaly_deg": 204.3137,
      "mean_motion_rev_day": 16.04322357
    }
  ]
}